{
    "links": {
        "self": "http://www.neowsapp.com/rest/v1/neo/54017649?api_key=iIulBulltgU6a56xZRHN4H3l9WmuAYTsLGpBGhQ2"
    },
    "id": "54017649",
    "neo_reference_id": "54017649",
    "name": "(2020 MF3)",
    "designation": "2020 MF3",
    "nasa_jpl_url": "http://ssd.jpl.nasa.gov/sbdb.cgi?sstr=54017649",
    "absolute_magnitude_h": 25.059,
    "estimated_diameter": {
        "kilometers": {
            "estimated_diameter_min": 0.0258675309,
            "estimated_diameter_max": 0.0578415575
        },
        "meters": {
            "estimated_diameter_min": 25.8675309037,
            "estimated_diameter_max": 57.8415575107
        },
        "miles": {
            "estimated_diameter_min": 0.0160733335,
            "estimated_diameter_max": 0.0359410664
        },
        "feet": {
            "estimated_diameter_min": 84.86723009,
            "estimated_diameter_max": 189.7688955434
        }
    },
    "is_potentially_hazardous_asteroid": false,
    "close_approach_data": [
        {
            "close_approach_date": "2020-07-12",
            "close_approach_date_full": "2020-Jul-12 16:51",
            "epoch_date_close_approach": 1594572660000,
            "relative_velocity": {
                "kilometers_per_second": "7.3397501139",
                "kilometers_per_hour": "26423.100409953",
                "miles_per_hour": "16418.2870297288"
            },
            "miss_distance": {
                "astronomical": "0.0772424102",
                "lunar": "30.0472975678",
                "kilometers": "11555300.039586274",
                "miles": "7180130.4975236212"
            },
            "orbiting_body": "Earth"
        }
    ],
    "orbital_data": {
        "orbit_id": "3",
        "orbit_determination_date": "2020-07-16 06:50:28",
        "first_observation_date": "2020-06-22",
        "last_observation_date": "2020-07-15",
        "data_arc_in_days": 23,
        "observations_used": 17,
        "orbit_uncertainty": "7",
        "minimum_orbit_intersection": ".0730725",
        "jupiter_tisserand_invariant": "3.500",
        "epoch_osculation": "2459000.5",
        "eccentricity": ".5009557396399769",
        "semi_major_axis": "2.174385316039282",
        "inclination": "8.370918921592491",
        "ascending_node_longitude": "99.88766891465183",
        "orbital_period": "1171.124823972119",
        "perihelion_distance": "1.085114511780519",
        "perihelion_argument": "192.9200919653548",
        "aphelion_distance": "3.263656120298045",
        "perihelion_time": "2459046.462693629021",
        "mean_anomaly": "345.8712159730963",
        "mean_motion": ".307396780113484",
        "equinox": "J2000",
        "orbit_class": {
            "orbit_class_type": "AMO",
            "orbit_class_description": "Near-Earth asteroid orbits similar to that of 1221 Amor",
            "orbit_class_range": "1.017 AU < q (perihelion) < 1.3 AU"
        }
    },
    "is_sentry_object": false
}